NORAD_CAT_ID,OBJECT_NAME,OBJECT_TYPE,EPOCH,MEAN_MOTION,ECCENTRICITY,INCLINATION,RA_OF_ASC_NODE,ARG_OF_PERICENTER,MEAN_ANOMALY,BSTAR,MEAN_MOTION_DOT,MEAN_MOTION_DDOT,TLE_LINE0,TLE_LINE1,TLE_LINE2,SEMIMAJOR_AXIS,PERIOD,APOGEE,PERIGEE,DECAYED
49437.0,STARLINK-3130,PAYLOAD,2022-12-11 18:52:38,15.08822664,0.0002996,53.2169,123.8786,53.36,306.7667,0.00033517,5.048e-05,0.0,0 STARLINK-3130,1 49437U 21104AF  22345.78655770  .00005048  00000-0  33517-3 0  9995,2 49437  53.2169 123.8786 0002996  53.3600 306.7667 15.08822664 61254,6917.933000000001,95.439,541.871,537.726,0.0
49437.0,STARLINK-3130,PAYLOAD,2022-12-11 20:28:01,15.088386300000002,0.0003461,53.2167,123.5811,48.4776,311.6512,0.00015063,2.109e-05,0.0,0 STARLINK-3130,1 49437U 21104AF  22345.85279685  .00002109  00000-0  15063-3 0  9991,2 49437  53.2167 123.5811 0003461  48.4776 311.6512 15.08838630 60191,6917.885,95.438,542.144,537.355,0.0
49437.0,STARLINK-3130,PAYLOAD,2022-12-12 09:11:06,15.08842222,0.000297,53.2169,121.2016,53.9891,306.1376,0.00015935,2.249e-05,0.0,0 STARLINK-3130,1 49437U 21104AF  22346.38271306  .00002249  00000-0  15935-3 0  9995,2 49437  53.2169 121.2016 0002970  53.9891 306.1376 15.08842222 60276,6917.874,95.437,541.793,537.684,0.0
49437.0,STARLINK-3130,PAYLOAD,2022-12-13 02:40:21,15.08841302,0.0003012,53.2168,117.9308,52.9143,307.2124,1.3137e-05,-8e-07,0.0,0 STARLINK-3130,1 49437U 21104AF  22347.11135550 -.00000080  00000-0  13137-4 0  9992,2 49437  53.2168 117.9308 0003012  52.9143 307.2124 15.08841302 61450,6917.876,95.437,541.825,537.658,0.0
49437.0,STARLINK-3130,PAYLOAD,2022-12-13 20:09:35,15.08840996,0.0003081,53.2166,114.6593,53.6519,306.4758,4.3937e-05,4.11e-06,0.0,0 STARLINK-3130,1 49437U 21104AF  22347.83999329  .00000411  00000-0  43937-4 0  9991,2 49437  53.2166 114.6593 0003081  53.6519 306.4758 15.08840996 60494,6917.877,95.437,541.874,537.611,0.0
49437.0,STARLINK-3130,PAYLOAD,2022-12-14 08:52:40,15.08844891,0.0003037,53.2157,112.2799,58.0055,302.1232,4.3034e-05,3.96e-06,0.0,0 STARLINK-3130,1 49437U 21104AF  22348.36990943  .00000396  00000-0  43034-4 0  9993,2 49437  53.2157 112.2799 0003037  58.0055 302.1232 15.08844891 61647,6917.865,95.437,541.831,537.629,0.0
49437.0,STARLINK-3130,PAYLOAD,2022-12-14 15:14:13,15.08838106,0.0002799,53.2179,111.0918,45.0307,315.0911,2.5923e-05,1.24e-06,0.0,0 STARLINK-3130,1 49437U 21104AF  22348.63487397  .00000124  00000-0  25923-4 0  9993,2 49437  53.2179 111.0918 0002799  45.0307 315.0911 15.08838106 60616,6917.886,95.438,541.687,537.815,0.0
49437.0,STARLINK-3130,PAYLOAD,2022-12-15 13:29:36,15.08848459,0.0002981,53.2173,106.9287,49.9393,310.186,-6.2567e-05,-1.285e-05,0.0,0 STARLINK-3130,1 49437U 21104AF  22349.56223031 -.00001285  00000-0 -62567-4 0  9995,2 49437  53.2173 106.9287 0002981  49.9393 310.1860 15.08848459 60759,6917.855,95.437,541.7819999999998,537.6569999999998,0.0
49437.0,STARLINK-3130,PAYLOAD,2022-12-15 19:51:09,15.08829356,0.000262,53.2159,105.7407,47.0229,313.0983,6.871399999999999e-05,8.05e-06,0.0,0 STARLINK-3130,1 49437U 21104AF  22349.82719853  .00000805  00000-0  68714-4 0  9991,2 49437  53.2159 105.7407 0002620  47.0229 313.0983 15.08829356 60798,6917.913000000001,95.438,541.59,537.965,0.0
49437.0,STARLINK-3130,PAYLOAD,2022-12-16 00:37:19,15.08836484,0.0002788999999999,53.2172,104.8475,46.6002,313.5222,4.4756e-05,4.24e-06,0.0,0 STARLINK-3130,1 49437U 21104AF  22350.02591615  .00000424  00000-0  44756-4 0  9996,2 49437  53.2172 104.8475 0002789  46.6002 313.5222 15.08836484 61891,6917.891,95.438,541.686,537.827,0.0
49437.0,STARLINK-3130,PAYLOAD,2022-12-16 13:20:24,15.08833758,0.0002785,53.2173,102.4688,47.8766,312.2462,5.426e-05,5.75e-06,0.0,0 STARLINK-3130,1 49437U 21104AF  22350.55583909  .00000575  00000-0  54260-4 0  9999,2 49437  53.2173 102.4688 0002785  47.8766 312.2462 15.08833758 60902,6917.899,95.438,541.691,537.8380000000002,0.0
49437.0,STARLINK-3130,PAYLOAD,2022-12-16 16:31:10,15.08836001,0.0002812,53.2173,101.8741,47.6939,312.4291,7.153300000000001e-05,8.5e-06,0.0,0 STARLINK-3130,1 49437U 21104AF  22350.68831775  .00000850  00000-0  71533-4 0  9998,2 49437  53.2173 101.8741 0002812  47.6939 312.4291 15.08836001 60924,6917.893,95.438,541.703,537.812,0.0
49437.0,STARLINK-3130,PAYLOAD,2022-12-17 00:28:07,15.08828724,0.000277,53.2171,100.3876,47.5793,312.5433,2.8717e-06,-2.43e-06,0.0,0 STARLINK-3130,1 49437U 21104AF  22351.01952599 -.00000243  00000-0  28717-5 0  9998,2 49437  53.2171 100.3876 0002770  47.5793 312.5433 15.08828724 62042,6917.915,95.438,541.696,537.864,0.0
49437.0,STARLINK-3130,PAYLOAD,2022-12-17 11:35:49,15.08822793,0.0002747,53.2172,98.3062,45.8404,314.2814,-1.9667e-05,-6.01e-06,0.0,0 STARLINK-3130,1 49437U 21104AF  22351.48321388 -.00000601  00000-0 -19667-4 0  9997,2 49437  53.2172  98.3062 0002747  45.8404 314.2814 15.08822793 61041,6917.933000000001,95.439,541.698,537.898,0.0
49437.0,STARLINK-3130,PAYLOAD,2022-12-17 14:46:35,15.08826613,0.000277,53.2178,97.7113,46.8491,313.2733,-5.02e-05,-1.087e-05,0.0,0 STARLINK-3130,1 49437U 21104AF  22351.61569355 -.00001087  00000-0 -50200-4 0  9997,2 49437  53.2178  97.7113 0002770  46.8491 313.2733 15.08826613 61066,6917.920999999999,95.438,541.703,537.87,0.0
49437.0,STARLINK-3130,PAYLOAD,2022-12-18 13:01:58,15.08841665,0.0002788,53.2185,93.5478,45.9306,314.1916,0.00011722,1.578e-05,0.0,0 STARLINK-3130,1 49437U 21104AF  22352.54304269  .00001578  00000-0  11722-3 0  9999,2 49437  53.2185  93.5478 0002788  45.9306 314.1916 15.08841665 62277,6917.875,95.437,541.669,537.812,0.0
49437.0,STARLINK-3130,PAYLOAD,2022-12-18 16:12:45,15.08837973,0.0002674,53.2175,92.9526,42.8692,317.2508,6.3785e-05,7.27e-06,0.0,0 STARLINK-3130,1 49437U 21104AF  22352.67552668  .00000727  00000-0  63785-4 0  9993,2 49437  53.2175  92.9526 0002674  42.8692 317.2508 15.08837973 61223,6917.887,95.438,541.601,537.9019999999998,0.0
49437.0,STARLINK-3130,PAYLOAD,2022-12-19 06:31:13,15.0883541,0.000263,53.2175,90.2763,43.109,317.0108,0.00016434,2.328e-05,0.0,0 STARLINK-3130,1 49437U 21104AF  22353.27168722  .00002328  00000-0  16434-3 0  9991,2 49437  53.2175  90.2763 0002630  43.1090 317.0108 15.08835410 62381,6917.894,95.438,541.5790000000002,537.94,0.0
49437.0,STARLINK-3130,PAYLOAD,2022-12-20 00:00:26,15.08860845,0.0002717,53.2179,87.0056,42.8521,317.2683,0.00016904,2.404e-05,0.0,0 STARLINK-3130,1 49437U 21104AF  22354.00030817  .00002404  00000-0  16904-3 0  9993,2 49437  53.2179  87.0056 0002717  42.8521 317.2683 15.08860845 62497,6917.816999999999,95.436,541.561,537.802,0.0
49437.0,STARLINK-3130,PAYLOAD,2022-12-20 12:43:31,15.08856045,0.000263,53.2189,84.626,45.2117,314.9088,0.0001313,1.803e-05,0.0,0 STARLINK-3130,1 49437U 21104AF  22354.53022793  .00001803  00000-0  13130-3 0  9995,2 49437  53.2189  84.6260 0002630  45.2117 314.9088 15.08856045 62579,6917.831,95.437,541.516,537.877,0.0
49437.0,STARLINK-3130,PAYLOAD,2022-12-20 17:29:41,15.08848097,0.0002603,53.2168,83.7348,39.422,320.6962,8.193600000000001e-05,1.016e-05,0.0,0 STARLINK-3130,1 49437U 21104AF  22354.72895133  .00001016  00000-0  81936-4 0  9998,2 49437  53.2168  83.7348 0002603  39.4220 320.6962 15.08848097 62600,6917.856,95.437,541.521,537.92,0.0
49437.0,STARLINK-3130,PAYLOAD,2022-12-21 12:34:21,15.08822238,0.0002558,53.2187,80.1682,33.1082,327.007,-0.00012192,-2.227e-05,0.0,0 STARLINK-3130,1 49437U 21104AF  22355.52385626 -.00002227  00000-0 -12192-3 0  9992,2 49437  53.2187  80.1682 0002558  33.1082 327.0070 15.08822238 62722,6917.935,95.439,541.569,538.03,0.0
49437.0,STARLINK-3130,PAYLOAD,2022-12-22 06:03:35,15.08833276,0.0002476,53.2183,76.89699999999998,30.6954,329.4183,-6.729199999999999e-05,-1.359e-05,0.0,0 STARLINK-3130,1 49437U 21104AF  22356.25249025 -.00001359  00000-0 -67292-4 0  9992,2 49437  53.2183  76.8970 0002476  30.6954 329.4183 15.08833276 62836,6917.901,95.438,541.479,538.053,0.0
49437.0,STARLINK-3130,PAYLOAD,2022-12-22 12:25:07,15.08839399,0.0002522,53.2176,75.7071,31.2296,328.8846,-1.281e-05,-4.92e-06,0.0,0 STARLINK-3130,1 49437U 21104AF  22356.51744570 -.00000492  00000-0 -12810-4 0  9999,2 49437  53.2176  75.7071 0002522  31.2296 328.8846 15.08839399 61803,6917.882,95.438,541.492,538.003,0.0
49437.0,STARLINK-3130,PAYLOAD,2022-12-22 17:11:16,15.088370499999998,0.0002545,53.2171,74.8146,31.6213,328.4931,-2.838e-05,-7.400000000000001e-06,0.0,0 STARLINK-3130,1 49437U 21104AF  22356.71616823 -.00000740  00000-0 -28380-4 0  9995,2 49437  53.2171  74.8146 0002545  31.6213 328.4931 15.08837050 61835,6917.889,95.438,541.515,537.994,0.0
49437.0,STARLINK-3130,PAYLOAD,2022-12-23 09:05:09,15.08816778,0.0002529,53.217,71.8408,27.6965,332.4161,0.00014208,1.972e-05,0.0,0 STARLINK-3130,1 49437U 21104AF  22357.37858253  .00001972  00000-0  14208-3 0  9992,2 49437  53.2170  71.8408 0002529  27.6965 332.4161 15.08816778 63008,6917.951,95.439,541.566,538.067,0.0
49437.0,STARLINK-3130,PAYLOAD,2022-12-23 15:26:42,15.08815268,0.0002492,53.2172,70.65100000000002,28.3275,331.7852,0.00019159,2.7600000000000014e-05,0.0,0 STARLINK-3130,1 49437U 21104AF  22357.64354544  .00002760  00000-0  19159-3 0  9992,2 49437  53.2172  70.6510 0002492  28.3275 331.7852 15.08815268 61978,6917.956,95.439,541.545,538.097,0.0
49437.0,STARLINK-3130,PAYLOAD,2022-12-24 21:39:00,15.08846467,0.0002609,53.2178,65.0007,27.2039,332.9089,0.00012664,1.728e-05,0.0,0 STARLINK-3130,1 49437U 21104AF  22358.90209181  .00001728  00000-0  12664-3 0  9995,2 49437  53.2178  65.0007 0002609  27.2039 332.9089 15.08846467 63230,6917.861,95.437,541.53,537.9209999999998,0.0
49437.0,STARLINK-3130,PAYLOAD,2022-12-25 13:32:52,15.08833184,0.000231,53.2174,62.0284,21.1751,338.9337,7.932100000000001e-05,9.74e-06,0.0,0 STARLINK-3130,1 49437U 21104AF  22359.56449987  .00000974  00000-0  79321-4 0  9994,2 49437  53.2174  62.0284 0002310  21.1751 338.9337 15.08833184 63338,6917.901,95.438,541.364,538.168,0.0
